STARLINK-31006          
1 59024U 24038B   25151.30476052  .00003080  00000+0  12141-3 0  9990
2 59024  42.9998 131.3640 0001081 268.9586  91.1142 15.27580958 72158
STARLINK-31178          
1 59025U 24038C   25151.36728973  .00000623  00000+0  33676-4 0  9996
2 59025  43.0018 180.3028 0001079 272.8962  87.1766 15.25902583 71489
STARLINK-31227          
1 59026U 24038D   25151.75777765 -.00011580  00000+0 -43388-3 0  9999
2 59026  42.9996 178.0747 0000719 260.3298  99.7472 15.25886436 71659
STARLINK-30863          
1 59027U 24038E   25151.54104469 -.00001001  00000+0 -28432-4 0  9993
2 59027  43.0013 179.0268 0001178 268.5586  91.5130 15.25900110 71513
STARLINK-31206          
1 59028U 24038F   25151.59760007  .00003302  00000+0  12954-3 0  9990
2 59028  43.0007 115.1215 0000535 267.6139  92.4651 15.27556545 72385
STARLINK-31224          
1 59029U 24038G   25151.36050364 -.00002914  00000+0 -10158-3 0  9998
2 59029  43.0017 180.2570 0001454 266.6436  93.4249 15.25915407 71594
STARLINK-31186          
1 59030U 24038H   25151.55460977  .00002766  00000+0  11552-3 0  9998
2 59030  43.0027 179.1391 0001514 268.7486  91.3191 15.25911898 71627
STARLINK-31211          
1 59031U 24038J   25151.35598084  .00000024  00000+0  10741-4 0  9993
2 59031  43.0013 180.2310 0001159 268.1497  91.9221 15.25902793 71486
STARLINK-30862          
1 59032U 24038K   25151.74073775  .00005020  00000+0  19191-3 0  9990
2 59032  42.9997 168.4687 0001544 271.2476  88.8199 15.27565882 71655
STARLINK-31210          
1 59033U 24038L   25151.52319451 -.00001276  00000+0 -36854-4 0  9998
2 59033  43.0028 177.1755 0001230 274.5821  85.4890 15.27566741 71700
STARLINK-31231          
1 59034U 24038M   25151.78088649 -.00001876  00000+0 -58698-4 0  9995
2 59034  43.0001 175.6658 0000867 264.1946  95.8807 15.27568205 71570
STARLINK-31207          
1 59035U 24038N   25151.45009738 -.00000633  00000+0 -13488-4 0  9990
2 59035  43.0025 177.4835 0001069 287.2741  72.7993 15.27564958 71692
STARLINK-31217          
1 59036U 24038P   25151.16457915  .00000217  00000+0  12479-4 0  9998
2 59036  43.0013  87.2180 0002393 255.2503 104.8088 15.40700408 72705
STARLINK-31208          
1 59037U 24038Q   25151.41224684  .00000014  00000+0  10373-4 0  9998
2 59037  43.0013 178.9036 0001433 274.7522  85.3165 15.25904922 71679
STARLINK-31235          
1 59038U 24038R   25151.77445335  .00000607  00000+0  31576-4 0  9992
2 59038  43.0014 175.6159 0001175 275.5134  84.5583 15.27569964 71683
STARLINK-31220          
1 59039U 24038S   25151.34241093 -.00001135  00000+0 -33574-4 0  9990
2 59039  43.0021 180.1228 0001336 266.1101  93.9597 15.25898714 71594
STARLINK-31225          
1 59040U 24038T   25151.35329827 -.00000108  00000+0  57092-5 0  9995
2 59040  43.0020 177.5756 0001436 273.1610  86.9077 15.25909132 71519
STARLINK-31240          
1 59041U 24038U   25151.53730616  .00012126  00000+0  44915-3 0  9998
2 59041  42.9999 177.2756 0001108 276.0371  84.0355 15.27602422 71660
STARLINK-31202          
1 59042U 24038V   25151.34487175  .00000691  00000+0  34658-4 0  9995
2 59042  42.9997 177.5536 0001608 267.3583  92.7085 15.27574636 71684
STARLINK-31234          
1 59043U 24038W   25151.79244776 -.00000062  00000+0  72863-5 0  9997
2 59043  43.0018 175.7475 0001110 189.0725 171.0107 15.27573268 71528
STARLINK-31153          
1 59044U 24038X   25151.37828318 -.00000855  00000+0 -21572-4 0  9993
2 59044  43.0002 177.8002 0001047 284.5581  75.5155 15.27567701 71516
STARLINK-31241          
1 59045U 24038Y   25151.46936775 -.00000187  00000+0  27163-5 0  9991
2 59045  43.0029 177.6250 0001398 257.5138 102.5557 15.27573011 71693
STARLINK-31205          
1 59046U 24038Z   25151.78858806 -.00000551  00000+0 -10503-4 0  9990
2 59046  43.0033 175.7254 0001222 266.9311  93.1401 15.27577698 71682
STARLINK-31265          
1 59074U 24041A   25151.91668981 -.00000775  00000+0 -19771-4 0  9997
2 59074  43.0015 101.8302 0001349 261.6475 333.5070 15.25923678 71189
STARLINK-31276          
1 59075U 24041B   25151.20264600 -.00000337  00000+0 -27350-5 0  9997
2 59075  43.0048 105.6277 0001389 267.1298  92.9395 15.27581535 71121
STARLINK-31259          
1 59076U 24041C   25151.27188907 -.00008956  00000+0 -31602-3 0  9998
2 59076  43.0042 105.2873 0001306 261.0120  99.0584 15.27612088 70035
STARLINK-31281          
1 59077U 24041D   25151.21045560 -.00017149  00000+0 -61740-3 0  9990
2 59077  43.0034 105.6835 0003830 310.0599  49.9916 15.27449412 71121
STARLINK-31274          
1 59078U 24041E   25151.28257636  .00013124  00000+0  51160-3 0  9999
2 59078  43.0030 105.3723 0000741 295.4215  64.6559 15.25847297 71083
STARLINK-31257          
1 59079U 24041F   25151.34576160 -.00000590  00000+0 -12737-4 0  9996
2 59079  43.0015 104.9885 0000932 263.2299  96.8446 15.25903287 71093
STARLINK-31299          
1 59080U 24041G   25151.87914143 -.00000832  00000+0 -20707-4 0  9998
2 59080  43.0015   4.3831 0000969 282.5400  77.5343 15.27576554 72332
STARLINK-31292          
1 59081U 24041H   25151.34498907  .00000547  00000+0  29404-4 0  9990
2 59081  43.0035 104.9674 0000746 251.7087 108.3683 15.27572358 71088
STARLINK-31286          
1 59082U 24041J   25151.28345414 -.00002187  00000+0 -70002-4 0  9992
2 59082  43.0036 105.3624 0001254 266.1171  93.9537 15.27574188 71168
STARLINK-31252          
1 59083U 24041K   25151.86580651  .00027524  00000+0  10054-2 0  9990
2 59083  43.0029  19.1044 0002161 286.4909  73.5705 15.27598487 72172
STARLINK-31261          
1 59084U 24041L   25151.21258449 -.00000622  00000+0 -13930-4 0  9997
2 59084  43.0013 105.7112 0000975 285.6078  74.4665 15.25901269 71126
STARLINK-31290          
1 59085U 24041M   25151.53281830  .00000480  00000+0  26989-4 0  9991
2 59085  43.0007  89.9643 0001133 244.9889 115.0845 15.27568594 71345
STARLINK-31279          
1 59086U 24041N   25151.14486393 -.00000585  00000+0 -12542-4 0  9998
2 59086  43.0019 106.0555 0001475 252.4167 107.6522 15.25902204 71116
STARLINK-31266          
1 59087U 24041P   25151.54885763  .00000533  00000+0  28882-4 0  9992
2 59087  43.0019 103.9141 0000820 255.3840 104.6921 15.27575785 71186
STARLINK-31313          
1 59088U 24041Q   25151.55142518  .00000286  00000+0  19909-4 0  9993
2 59088  43.0030 103.9349 0000888 267.9325  92.1425 15.27577354 71129
STARLINK-31307          
1 59089U 24041R   25151.58497700 -.00000458  00000+0 -76624-5 0  9994
2 59089  43.0028 103.3369 0000955 265.3318  94.7424 15.25904780 71180
STARLINK-31316          
1 59090U 24041S   25151.15869285 -.00001041  00000+0 -28323-4 0  9991
2 59090  43.0036  59.4649 0001189 275.4100  84.6616 15.27568962 71545
STARLINK-31310          
1 59092U 24041U   25151.55570538  .00000765  00000+0  39090-4 0  9990
2 59092  43.0118 103.9567 0000851 324.6406  35.4388 15.25909592 71123
STARLINK-31343          
1 59093U 24041V   25151.14034086 -.00000687  00000+0 -16409-4 0  9993
2 59093  43.0023 106.0179 0001493 246.4337 113.6357 15.25901847 71118
STARLINK-31295          
1 59095U 24041X   25151.55112649  .00008694  00000+0  34122-3 0  9997
2 59095  43.0003 103.9337 0000429 208.2232 151.8596 15.25968016 71130
STARLINK-31291          
1 59096U 24041Y   25151.59628079  .00000078  00000+0  12829-4 0  9990
2 59096  43.0025 103.4188 0001214 250.0748 109.9972 15.25903625 71131
STARLINK-31312          
1 59152U 24044A   25151.43576808  .00013918  00000+0  51434-3 0  9992
2 59152  42.9982 210.3478 0001353 271.0563  89.0134 15.27579334 71019
STARLINK-31308          
1 59153U 24044B   25151.45971930 -.00001796  00000+0 -55803-4 0  9998
2 59153  43.0001 214.0758 0001149 275.9785  84.0936 15.27563107 70989
STARLINK-31270          
1 59154U 24044C   25151.34478856 -.00000098  00000+0  59688-5 0  9995
2 59154  43.0008 261.6449 0001034 271.0897  88.9836 15.27565752 70414
STARLINK-31341          
1 59155U 24044D   25151.57122729  .00000826  00000+0  41421-4 0  9999
2 59155  42.9982 261.6350 0001183 224.0988 135.9769 15.25904128 70408
STARLINK-31338          
1 59156U 24044E   25151.56896843 -.00012277  00000+0 -46035-3 0  9994
2 59156  42.9978 261.6227 0001661 285.0692  74.9975 15.25902622 70405
STARLINK-31334          
1 59157U 24044F   25151.30487289  .00001258  00000+0  57935-4 0  9994
2 59157  42.9978 263.0739 0000455 201.4303 158.6529 15.25899516 70368
STARLINK-31297          
1 59158U 24044G   25151.74095126  .00010366  00000+0  38551-3 0  9990
2 59158  43.0006 259.4570 0001077 269.8720  90.2008 15.27595729 70473
STARLINK-31182          
1 59159U 24044H   25151.57291795  .00002259  00000+0  91614-4 0  9994
2 59159  43.0021 259.9230 0001876 249.3090 110.7560 15.27574384 70452
STARLINK-31327          
1 59160U 24044J   25151.74351974  .00001127  00000+0  50455-4 0  9992
2 59160  42.9998 259.4752 0000102  70.0322 290.0541 15.27579749 70470
STARLINK-31256          
1 59161U 24044K   25151.57677487  .00000762  00000+0  37216-4 0  9998
2 59161  43.0010 259.9485 0001796 264.7318  95.3329 15.27572037 70454
STARLINK-31272          
1 59162U 24044L   25151.77679381 -.00000004  00000+0  93830-5 0  9991
2 59162  42.9990 258.8695 0000480 232.2154 127.8654 15.27568418 70436
STARLINK-31278          
1 59163U 24044M   25151.58447743  .00002225  00000+0  90343-4 0  9997
2 59163  42.9987 260.0054 0000321 223.6958 136.3868 15.27578472 70407
STARLINK-31309          
1 59164U 24044N   25151.78449689  .00003711  00000+0  14436-3 0  9990
2 59164  42.9988 258.9245 0000673 248.4440 111.6340 15.27565626 70495
STARLINK-31325          
1 59165U 24044P   25151.59090858 -.00000669  00000+0 -14774-4 0  9997
2 59165  42.9995 260.0473 0001714 279.3506  80.7152 15.27570424 70426
STARLINK-31342          
1 59166U 24044Q   25151.59475779  .00006312  00000+0  23847-3 0  9996
2 59166  43.0004 260.0790 0001173 267.7891  92.2826 15.27609286 70457
